{
  "type": "FeatureCollection",
  "features": [
    {
      "type": "Feature",
      "properties": {
        "norad_id": 34003,
        "name": "COSMOS 2251 DEB",
        "group": "cosmos-2251-debris",
        "lat": -15.3917664578263,
        "lon": 90.01364938288206,
        "alt_km": 1154.9868654830607,
        "timestamp": "2025-12-24T09:46:31.398171+00:00",
        "meta_object_name": "COSMOS 2251 DEB",
        "meta_object_id": "1993-036GN",
        "meta_epoch": "2025-12-23T10:17:14.601408",
        "meta_mean_motion": 13.84206972,
        "meta_eccentricity": 0.02752572,
        "meta_inclination": 74.0777,
        "meta_ra_of_asc_node": 267.1533,
        "meta_arg_of_pericenter": 16.7588,
        "meta_mean_anomaly": 344.2408,
        "meta_ephemeris_type": 0,
        "meta_classification_type": "U",
        "meta_norad_cat_id": 34003,
        "meta_element_set_no": 999,
        "meta_rev_at_epoch": 84573,
        "meta_bstar": 0.0017940126,
        "meta_mean_motion_dot": 2.661e-05,
        "meta_mean_motion_ddot": 0,
        "tle_line1": "1 34003U 93036GN  25357.42864122  .00002661  00000+0  17940-2 0  9999",
        "tle_line2": "2 34003  74.0777 267.1533 0275257  16.7588 344.2408 13.84206972845738"
      },
      "geometry": {
        "type": "Point",
        "coordinates": [
          90.01364938288206,
          -15.3917664578263
        ]
      }
    },
    {
      "type": "Feature",
      "properties": {
        "norad_id": 34004,
        "name": "COSMOS 2251 DEB",
        "group": "cosmos-2251-debris",
        "lat": 35.90833487485941,
        "lon": -56.80586991423947,
        "alt_km": 728.0425513643277,
        "timestamp": "2025-12-24T09:46:31.398181+00:00",
        "meta_object_name": "COSMOS 2251 DEB",
        "meta_object_id": "1993-036GP",
        "meta_epoch": "2025-12-23T05:26:09.671712",
        "meta_mean_motion": 14.49098754,
        "meta_eccentricity": 0.00334544,
        "meta_inclination": 74.0361,
        "meta_ra_of_asc_node": 293.4447,
        "meta_arg_of_pericenter": 304.4211,
        "meta_mean_anomaly": 55.3787,
        "meta_ephemeris_type": 0,
        "meta_classification_type": "U",
        "meta_norad_cat_id": 34004,
        "meta_element_set_no": 999,
        "meta_rev_at_epoch": 88182,
        "meta_bstar": 0.0012360348,
        "meta_mean_motion_dot": 4.706e-05,
        "meta_mean_motion_ddot": 0,
        "tle_line1": "1 34004U 93036GP  25357.22650083  .00004706  00000+0  12360-2 0  9990",
        "tle_line2": "2 34004  74.0361 293.4447 0033454 304.4211  55.3787 14.49098754881824"
      },
      "geometry": {
        "type": "Point",
        "coordinates": [
          -56.80586991423947,
          35.90833487485941
        ]
      }
    },
    {
      "type": "Feature",
      "properties": {
        "norad_id": 34005,
        "name": "COSMOS 2251 DEB",
        "group": "cosmos-2251-debris",
        "lat": -53.236864174330385,
        "lon": 169.5731192348745,
        "alt_km": 749.0285721625487,
        "timestamp": "2025-12-24T09:46:31.398191+00:00",
        "meta_object_name": "COSMOS 2251 DEB",
        "meta_object_id": "1993-036GQ",
        "meta_epoch": "2025-12-24T00:45:27.508896",
        "meta_mean_motion": 14.40311948,
        "meta_eccentricity": 0.0021191,
        "meta_inclination": 74.0434,
        "meta_ra_of_asc_node": 192.7847,
        "meta_arg_of_pericenter": 309.1002,
        "meta_mean_anomaly": 207.0852,
        "meta_ephemeris_type": 0,
        "meta_classification_type": "U",
        "meta_norad_cat_id": 34005,
        "meta_element_set_no": 999,
        "meta_rev_at_epoch": 88541,
        "meta_bstar": 9.8176e-05,
        "meta_mean_motion_dot": 2.85e-06,
        "meta_mean_motion_ddot": 0,
        "tle_line1": "1 34005U 93036GQ  25358.03156839  .00000285  00000+0  98176-4 0  9990",
        "tle_line2": "2 34005  74.0434 192.7847 0021191 309.1002 207.0852 14.40311948885418"
      },
      "geometry": {
        "type": "Point",
        "coordinates": [
          169.5731192348745,
          -53.236864174330385
        ]
      }
    },
    {
      "type": "Feature",
      "properties": {
        "norad_id": 34006,
        "name": "COSMOS 2251 DEB",
        "group": "cosmos-2251-debris",
        "lat": -10.13020340864854,
        "lon": 116.84929452277463,
        "alt_km": 580.9731671409008,
        "timestamp": "2025-12-24T09:46:31.398202+00:00",
        "meta_object_name": "COSMOS 2251 DEB",
        "meta_object_id": "1993-036GR",
        "meta_epoch": "2025-12-23T09:59:27.714336",
        "meta_mean_motion": 14.95449075,
        "meta_eccentricity": 0.00116268,
        "meta_inclination": 74.0535,
        "meta_ra_of_asc_node": 121.7746,
        "meta_arg_of_pericenter": 54.9449,
        "meta_mean_anomaly": 1.6406,
        "meta_ephemeris_type": 0,
        "meta_classification_type": "U",
        "meta_norad_cat_id": 34006,
        "meta_element_set_no": 999,
        "meta_rev_at_epoch": 88828,
        "meta_bstar": 0.0034401278,
        "meta_mean_motion_dot": 0.00038281,
        "meta_mean_motion_ddot": 0,
        "tle_line1": "1 34006U 93036GR  25357.41629299  .00038281  00000+0  34401-2 0  9993",
        "tle_line2": "2 34006  74.0535 121.7746 0011626  54.9449   1.6406 14.95449075888287"
      },
      "geometry": {
        "type": "Point",
        "coordinates": [
          116.84929452277463,
          -10.13020340864854
        ]
      }
    },
    {
      "type": "Feature",
      "properties": {
        "norad_id": 34007,
        "name": "COSMOS 2251 DEB",
        "group": "cosmos-2251-debris",
        "lat": 73.18609842958011,
        "lon": 72.9353533524554,
        "alt_km": 638.916326738904,
        "timestamp": "2025-12-24T09:46:31.398213+00:00",
        "meta_object_name": "COSMOS 2251 DEB",
        "meta_object_id": "1993-036GS",
        "meta_epoch": "2025-12-23T08:45:31.099392",
        "meta_mean_motion": 14.6485655,
        "meta_eccentricity": 0.0044247,
        "meta_inclination": 74.0195,
        "meta_ra_of_asc_node": 326.4413,
        "meta_arg_of_pericenter": 97.9104,
        "meta_mean_anomaly": 262.709,
        "meta_ephemeris_type": 0,
        "meta_classification_type": "U",
        "meta_norad_cat_id": 34007,
        "meta_element_set_no": 999,
        "meta_rev_at_epoch": 89235,
        "meta_bstar": 0.00073305,
        "meta_mean_motion_dot": 3.943e-05,
        "meta_mean_motion_ddot": 0,
        "tle_line1": "1 34007U 93036GS  25357.36494328  .00003943  00000+0  73305-3 0  9995",
        "tle_line2": "2 34007  74.0195 326.4413 0044247  97.9104 262.7090 14.64856550892353"
      },
      "geometry": {
        "type": "Point",
        "coordinates": [
          72.9353533524554,
          73.18609842958011
        ]
      }
    },
    {
      "type": "Feature",
      "properties": {
        "norad_id": 34008,
        "name": "COSMOS 2251 DEB",
        "group": "cosmos-2251-debris",
        "lat": -74.02506583408571,
        "lon": -140.97117413653913,
        "alt_km": 773.2997195148637,
        "timestamp": "2025-12-24T09:46:31.398223+00:00",
        "meta_object_name": "COSMOS 2251 DEB",
        "meta_object_id": "1993-036GT",
        "meta_epoch": "2025-12-24T03:36:17.043264",
        "meta_mean_motion": 14.33153747,
        "meta_eccentricity": 0.0024634,
        "meta_inclination": 74.0349,
        "meta_ra_of_asc_node": 309.6644,
        "meta_arg_of_pericenter": 303.087,
        "meta_mean_anomaly": 81.0266,
        "meta_ephemeris_type": 0,
        "meta_classification_type": "U",
        "meta_norad_cat_id": 34008,
        "meta_element_set_no": 999,
        "meta_rev_at_epoch": 88128,
        "meta_bstar": 0.00011875,
        "meta_mean_motion_dot": 3.01e-06,
        "meta_mean_motion_ddot": 0,
        "tle_line1": "1 34008U 93036GT  25358.15019726  .00000301  00000+0  11875-3 0  9998",
        "tle_line2": "2 34008  74.0349 309.6644 0024634 303.0870  81.0266 14.33153747881284"
      },
      "geometry": {
        "type": "Point",
        "coordinates": [
          -140.97117413653913,
          -74.02506583408571
        ]
      }
    },
    {
      "type": "Feature",
      "properties": {
        "norad_id": 34009,
        "name": "COSMOS 2251 DEB",
        "group": "cosmos-2251-debris",
        "lat": -48.44085564006106,
        "lon": -63.22052620355508,
        "alt_km": 781.7318515925317,
        "timestamp": "2025-12-24T09:46:31.398233+00:00",
        "meta_object_name": "COSMOS 2251 DEB",
        "meta_object_id": "1993-036GU",
        "meta_epoch": "2025-12-24T03:22:09.623424",
        "meta_mean_motion": 14.33231039,
        "meta_eccentricity": 0.0026947,
        "meta_inclination": 74.0377,
        "meta_ra_of_asc_node": 316.1017,
        "meta_arg_of_pericenter": 22.4678,
        "meta_mean_anomaly": 350.1486,
        "meta_ephemeris_type": 0,
        "meta_classification_type": "U",
        "meta_norad_cat_id": 34009,
        "meta_element_set_no": 999,
        "meta_rev_at_epoch": 88109,
        "meta_bstar": 0.00014499,
        "meta_mean_motion_dot": 3.74e-06,
        "meta_mean_motion_ddot": 0,
        "tle_line1": "1 34009U 93036GU  25358.14038916  .00000374  00000+0  14499-3 0  9995",
        "tle_line2": "2 34009  74.0377 316.1017 0026947  22.4678 350.1486 14.33231039881094"
      },
      "geometry": {
        "type": "Point",
        "coordinates": [
          -63.22052620355508,
          -48.44085564006106
        ]
      }
    }
  ]
}